IRIDIUM 136             
1 42962U 17061H   24196.89387070  .00000035  00000+0  53557-5 0  9999
2 42962  86.3989 318.7386 0002251 102.3408 257.8040 14.34215881354175
